{"type": "FeatureCollection", "features": [ {"type": "Feature", "properties": {"norad_id": 66907, "name": "1998-067XT", "group": "last-30-days", "lat": 35.40691183487393, "lon": -166.3649631490533, "alt_km": 412.73552308668604, "timestamp": "2025-12-09T07:41:31.974033+00:00", "meta": {"OBJECT_NAME": "1998-067XT", "OBJECT_ID": "1998-067XT", "EPOCH": "2025-12-08T19:06:53.694720", "MEAN_MOTION": 15.50762002, "ECCENTRICITY": 0.00049716, "INCLINATION": 51.6302, "RA_OF_ASC_NODE": 161.9586, "ARG_OF_PERICENTER": 204.3216, "MEAN_ANOMALY": 155.7539, "EPHEMERIS_TYPE": 0, "CLASSIFICATION_TYPE": "U", "NORAD_CAT_ID": 66907, "ELEMENT_SET_NO": 999, "REV_AT_EPOCH": 100, "BSTAR": 0.0012614232, "MEAN_MOTION_DOT": 0.00074227, "MEAN_MOTION_DDOT": 0}, "tle": {"line1": "1 66907U 98067XT  25342.79645480  .00074227  00000+0  12614-2 0  9994", "line2": "2 66907  51.6302 161.9586 0004971 204.3216 155.7539 15.50762002  1006"}}, "geometry": {"type": "Point", "coordinates": [-166.3649631490533, 35.40691183487393]}}, {"type": "Feature", "properties": {"norad_id": 66908, "name": "1998-067XU", "group": "last-30-days", "lat": 36.11002695541512, "lon": -165.33624977137967, "alt_km": 412.5983755242696, "timestamp": "2025-12-09T07:41:31.974044+00:00", "meta": {"OBJECT_NAME": "1998-067XU", "OBJECT_ID": "1998-067XU", "EPOCH": "2025-12-08T22:12:12.981600", "MEAN_MOTION": 15.50818267, "ECCENTRICITY": 0.00051673, "INCLINATION": 51.6297, "RA_OF_ASC_NODE": 161.3178, "ARG_OF_PERICENTER": 203.3313, "MEAN_ANOMALY": 156.7442, "EPHEMERIS_TYPE": 0, "CLASSIFICATION_TYPE": "U", "NORAD_CAT_ID": 66908, "ELEMENT_SET_NO": 999, "REV_AT_EPOCH": 102, "BSTAR": 0.0011183297, "MEAN_MOTION_DOT": 0.00065818, "MEAN_MOTION_DDOT": 0}, "tle": {"line1": "1 66908U 98067XU  25342.92515025  .00065818  00000+0  11183-2 0  9997", "line2": "2 66908  51.6297 161.3178 0005167 203.3313 156.7442 15.50818267  1027"}}, "geometry": {"type": "Point", "coordinates": [-165.33624977137967, 36.11002695541512]}}, {"type": "Feature", "properties": {"norad_id": 66909, "name": "SILVERSAT", "group": "last-30-days", "lat": 36.6512737253044, "lon": -164.5233815191573, "alt_km": 412.1424515337685, "timestamp": "2025-12-09T07:41:31.974054+00:00", "meta": {"OBJECT_NAME": "SILVERSAT", "OBJECT_ID": "1998-067XV", "EPOCH": "2025-12-08T17:33:40.093920", "MEAN_MOTION": 15.50878297, "ECCENTRICITY": 0.0005012, "INCLINATION": 51.6297, "RA_OF_ASC_NODE": 162.2763, "ARG_OF_PERICENTER": 204.4469, "MEAN_ANOMALY": 155.6283, "EPHEMERIS_TYPE": 0, "CLASSIFICATION_TYPE": "U", "NORAD_CAT_ID": 66909, "ELEMENT_SET_NO": 999, "REV_AT_EPOCH": 99, "BSTAR": 0.0013404205, "MEAN_MOTION_DOT": 0.00079284, "MEAN_MOTION_DDOT": 0}, "tle": {"line1": "1 66909U 98067XV  25342.73171405  .00079284  00000+0  13404-2 0  9997", "line2": "2 66909  51.6297 162.2763 0005012 204.4469 155.6283 15.50878297   996"}}, "geometry": {"type": "Point", "coordinates": [-164.5233815191573, 36.6512737253044]}}, {"type": "Feature", "properties": {"norad_id": 66910, "name": "1998-067XW", "group": "last-30-days", "lat": 40.49329883610146, "lon": -158.08533872646223, "alt_km": 410.6956256484773, "timestamp": "2025-12-09T07:41:31.974066+00:00", "meta": {"OBJECT_NAME": "1998-067XW", "OBJECT_ID": "1998-067XW", "EPOCH": "2025-12-08T22:10:28.282944", "MEAN_MOTION": 15.51110893, "ECCENTRICITY": 0.00059267, "INCLINATION": 51.6296, "RA_OF_ASC_NODE": 161.31, "ARG_OF_PERICENTER": 189.6161, "MEAN_ANOMALY": 170.4716, "EPHEMERIS_TYPE": 0, "CLASSIFICATION_TYPE": "U", "NORAD_CAT_ID": 66910, "ELEMENT_SET_NO": 999, "REV_AT_EPOCH": 102, "BSTAR": 0.0011400627, "MEAN_MOTION_DOT": 0.00067841, "MEAN_MOTION_DDOT": 0}, "tle": {"line1": "1 66910U 98067XW  25342.92393846  .00067841  00000+0  11401-2 0  9996", "line2": "2 66910  51.6296 161.3100 0005926 189.6161 170.4716 15.51110893  1022"}}, "geometry": {"type": "Point", "coordinates": [-158.08533872646223, 40.49329883610146]}}, {"type": "Feature", "properties": {"norad_id": 66911, "name": "1998-067XX", "group": "last-30-days", "lat": 41.387107086267214, "lon": -156.37910772077703, "alt_km": 410.00839011929565, "timestamp": "2025-12-09T07:41:31.974077+00:00", "meta": {"OBJECT_NAME": "1998-067XX", "OBJECT_ID": "1998-067XX", "EPOCH": "2025-12-08T19:04:34.996800", "MEAN_MOTION": 15.51222448, "ECCENTRICITY": 0.00057546, "INCLINATION": 51.6294, "RA_OF_ASC_NODE": 161.9483, "ARG_OF_PERICENTER": 189.9159, "MEAN_ANOMALY": 170.1718, "EPHEMERIS_TYPE": 0, "CLASSIFICATION_TYPE": "U", "NORAD_CAT_ID": 66911, "ELEMENT_SET_NO": 999, "REV_AT_EPOCH": 99, "BSTAR": 0.0014184856, "MEAN_MOTION_DOT": 0.00085043, "MEAN_MOTION_DDOT": 0}, "tle": {"line1": "1 66911U 98067XX  25342.79484950  .00085043  00000+0  14185-2 0  9995", "line2": "2 66911  51.6294 161.9483 0005754 189.9159 170.1718 15.51222448   994"}}, "geometry": {"type": "Point", "coordinates": [-156.37910772077703, 41.387107086267214]}}, {"type": "Feature", "properties": {"norad_id": 66912, "name": "1998-067XY", "group": "last-30-days", "lat": 33.891323466246426, "lon": -168.48131997933356, "alt_km": 413.58355597994705, "timestamp": "2025-12-09T07:41:31.974087+00:00", "meta": {"OBJECT_NAME": "1998-067XY", "OBJECT_ID": "1998-067XY", "EPOCH": "2025-12-08T19:07:24.190464", "MEAN_MOTION": 15.50590013, "ECCENTRICITY": 0.00050406, "INCLINATION": 51.6301, "RA_OF_ASC_NODE": 161.961, "ARG_OF_PERICENTER": 202.8515, "MEAN_ANOMALY": 157.2251, "EPHEMERIS_TYPE": 0, "CLASSIFICATION_TYPE": "U", "NORAD_CAT_ID": 66912, "ELEMENT_SET_NO": 999, "REV_AT_EPOCH": 99, "BSTAR": 0.0010396633, "MEAN_MOTION_DOT": 0.00060617, "MEAN_MOTION_DDOT": 0}, "tle": {"line1": "1 66912U 98067XY  25342.79680776  .00060617  00000+0  10397-2 0  9991", "line2": "2 66912  51.6301 161.9610 0005040 202.8515 157.2251 15.50590013   998"}}, "geometry": {"type": "Point", "coordinates": [-168.48131997933356, 33.891323466246426]}}, {"type": "Feature", "properties": {"norad_id": 66913, "name": "2025-284A", "group": "last-30-days", "lat": 77.88324394909263, "lon": -97.89405650736319, "alt_km": 507.29167126756874, "timestamp": "2025-12-09T07:41:31.974097+00:00", "meta": {"OBJECT_NAME": "2025-284A", "OBJECT_ID": "2025-284A", "EPOCH": "2025-12-08T23:21:31.399776", "MEAN_MOTION": 15.18805631, "ECCENTRICITY": 0.00080378, "INCLINATION": 80.4053, "RA_OF_ASC_NODE": 134.539, "ARG_OF_PERICENTER": 258.9868, "MEAN_ANOMALY": 101.0456, "EPHEMERIS_TYPE": 0, "CLASSIFICATION_TYPE": "U", "NORAD_CAT_ID": 66913, "ELEMENT_SET_NO": 999, "REV_AT_EPOCH": 55, "BSTAR": 0.00059050867, "MEAN_MOTION_DOT": 0.00012323, "MEAN_MOTION_DDOT": 0}, "tle": {"line1": "1 66913U 25284A   25342.97328009  .00012323  00000+0  59051-3 0  9993", "line2": "2 66913  80.4053 134.5390 0008037 258.9868 101.0456 15.18805631   551"}}, "geometry": {"type": "Point", "coordinates": [-97.89405650736319, 77.88324394909263]}}, {"type": "Feature", "properties": {"norad_id": 66914, "name": "2025-284B", "group": "last-30-days", "lat": 73.37445676742789, "lon": -80.4146738586037, "alt_km": 504.8585727958198, "timestamp": "2025-12-09T07:41:31.974107+00:00", "meta": {"OBJECT_NAME": "2025-284B", "OBJECT_ID": "2025-284B", "EPOCH": "2025-12-07T23:38:29.179680", "MEAN_MOTION": 15.20093076, "ECCENTRICITY": 0.00128589, "INCLINATION": 80.4047, "RA_OF_ASC_NODE": 135.7909, "ARG_OF_PERICENTER": 245.1407, "MEAN_ANOMALY": 114.8485, "EPHEMERIS_TYPE": 0, "CLASSIFICATION_TYPE": "U", "NORAD_CAT_ID": 66914, "ELEMENT_SET_NO": 999, "REV_AT_EPOCH": 40, "BSTAR": 0.00060156278, "MEAN_MOTION_DOT": 0.00013048, "MEAN_MOTION_DDOT": 0}, "tle": {"line1": "1 66914U 25284B   25341.98505995  .00013048  00000+0  60156-3 0  9998", "line2": "2 66914  80.4047 135.7909 0012858 245.1407 114.8485 15.20093076   400"}}, "geometry": {"type": "Point", "coordinates": [-80.4146738586037, 73.37445676742789]}}, {"type": "Feature", "properties": {"norad_id": 66915, "name": "HULIANWANG DIGUI 14A", "group": "last-30-days", "lat": 15.01698848371649, "lon": -61.78824836192699, "alt_km": 875.4126760138552, "timestamp": "2025-12-09T07:41:31.974124+00:00", "meta": {"OBJECT_NAME": "HULIANWANG DIGUI 14A", "OBJECT_ID": "2025-285A", "EPOCH": "2025-12-08T22:24:01.034784", "MEAN_MOTION": 14.05465769, "ECCENTRICITY": 0.00080883, "INCLINATION": 50.0032, "RA_OF_ASC_NODE": 132.8092, "ARG_OF_PERICENTER": 269.8448, "MEAN_ANOMALY": 90.153, "EPHEMERIS_TYPE": 0, "CLASSIFICATION_TYPE": "U", "NORAD_CAT_ID": 66915, "ELEMENT_SET_NO": 999, "REV_AT_EPOCH": 37, "BSTAR": 9.612313e-06, "MEAN_MOTION_DOT": -1.36e-06, "MEAN_MOTION_DDOT": 0}, "tle": {"line1": "1 66915U 25285A   25342.93334531 -.00000136  00000+0  96123-5 0  9992", "line2": "2 66915  50.0032 132.8092 0008088 269.8448  90.1530 14.05465769   374"}}, "geometry": {"type": "Point", "coordinates": [-61.78824836192699, 15.01698848371649]}}, {"type": "Feature", "properties": {"norad_id": 66916, "name": "HULIANWANG DIGUI 14B", "group": "last-30-days", "lat": 14.607068241576044, "lon": -61.409973174976145, "alt_km": 874.5319013759627, "timestamp": "2025-12-09T07:41:31.974136+00:00", "meta": {"OBJECT_NAME": "HULIANWANG DIGUI 14B", "OBJECT_ID": "2025-285B", "EPOCH": "2025-12-08T22:23:53.169792", "MEAN_MOTION": 14.05512232, "ECCENTRICITY": 0.0006943, "INCLINATION": 50.0043, "RA_OF_ASC_NODE": 132.8098, "ARG_OF_PERICENTER": 264.5664, "MEAN_ANOMALY": 95.4449, "EPHEMERIS_TYPE": 0, "CLASSIFICATION_TYPE": "U", "NORAD_CAT_ID": 66916, "ELEMENT_SET_NO": 999, "REV_AT_EPOCH": 37, "BSTAR": 1.4775005e-05, "MEAN_MOTION_DOT": -1.28e-06, "MEAN_MOTION_DDOT": 0}, "tle": {"line1": "1 66916U 25285B   25342.93325428 -.00000128  00000+0  14775-4 0  9991", "line2": "2 66916  50.0043 132.8098 0006943 264.5664  95.4449 14.05512232   378"}}, "geometry": {"type": "Point", "coordinates": [-61.409973174976145, 14.607068241576044]}}]}